[Satellite]
VERSION=1.1
NAME=INMARSAT 3-F2
NICKNAME=INMARSAT 3-F2
TLE1=1 24307U 96053A   17186.14797062 -.00000131  00000-0  00000-0 0  9994
TLE2=2 24307   2.6632  77.6570 0004767   7.3021 236.1505  1.00271640 76215
